[{"OBJECT_NAME":"STARLINK-4334","OBJECT_ID":"2022-105T","EPOCH":"2026-03-09T15:00:13.080096","MEAN_MOTION":15.05652455,"ECCENTRICITY":0.0002338,"INCLINATION":97.6033,"RA_OF_ASC_NODE":311.1978,"ARG_OF_PERICENTER":71.2278,"MEAN_ANOMALY":288.9203,"EPHEMERIS_TYPE":0,"CLASSIFICATION_TYPE":"U","NORAD_CAT_ID":53665,"ELEMENT_SET_NO":999,"REV_AT_EPOCH":19329,"BSTAR":7.4915e-6,"MEAN_MOTION_DOT":4.7e-7,"MEAN_MOTION_DDOT":0},{"OBJECT_NAME":"DELTA 1 DEB","OBJECT_ID":"1984-088G","EPOCH":"2026-03-08T09:15:52.675776","MEAN_MOTION":11.22084929,"ECCENTRICITY":0.17879711,"INCLINATION":28.736,"RA_OF_ASC_NODE":131.5031,"ARG_OF_PERICENTER":348.7228,"MEAN_ANOMALY":7.7805,"EPHEMERIS_TYPE":0,"CLASSIFICATION_TYPE":"U","NORAD_CAT_ID":19008,"ELEMENT_SET_NO":999,"REV_AT_EPOCH":55810,"BSTAR":0.0010315436,"MEAN_MOTION_DOT":1.852e-5,"MEAN_MOTION_DDOT":0}]
